[{"OBJECT_NAME":"SUPERVIEW NEO-1 02","OBJECT_ID":"2022-043C","EPOCH":"2026-03-09T23:18:16.407072","MEAN_MOTION":15.15488211,"ECCENTRICITY":0.00011754,"INCLINATION":97.3469,"RA_OF_ASC_NODE":144.9918,"ARG_OF_PERICENTER":5.9221,"MEAN_ANOMALY":354.2026,"EPHEMERIS_TYPE":0,"CLASSIFICATION_TYPE":"U","NORAD_CAT_ID":52322,"ELEMENT_SET_NO":999,"REV_AT_EPOCH":21454,"BSTAR":0.00034150894,"MEAN_MOTION_DOT":6.402e-5,"MEAN_MOTION_DDOT":0},{"OBJECT_NAME":"YAOGAN-1 DEB","OBJECT_ID":"2006-015J","EPOCH":"2026-03-09T17:10:54.675840","MEAN_MOTION":15.17781465,"ECCENTRICITY":0.00121617,"INCLINATION":97.7703,"RA_OF_ASC_NODE":138.5844,"ARG_OF_PERICENTER":172.9693,"MEAN_ANOMALY":187.1713,"EPHEMERIS_TYPE":0,"CLASSIFICATION_TYPE":"U","NORAD_CAT_ID":36365,"ELEMENT_SET_NO":999,"REV_AT_EPOCH":87329,"BSTAR":0.00061009979,"MEAN_MOTION_DOT":0.0001229,"MEAN_MOTION_DDOT":0}]
